{
  "norad_id": 27831,
  "name": "OPTUS C1",
  "history": [
    {
      "epoch": "2026-03-28T18:39:38.769984Z",
      "apogee_km": 35812.27673868402,
      "perigee_km": 35760.16917935946,
      "latitude_deg": -1.300256347149398,
      "longitude_deg": 155.58181905917672,
      "height_km": 35792.38578300756,
      "semi_major_axis_km": 42164.35995902174,
      "eccentricity": 0.00061791,
      "inclination_deg": 6.69,
      "raan_deg": 70.3701,
      "arg_perigee_deg": 295.791,
      "mean_anomaly_deg": 255.6491,
      "mean_motion_rev_day": 1.00273112
    }
  ]
}