OPTUS C1                
1 27831U 03028B   26087.77753206 -.00000166  00000+0  00000+0 0  9996
2 27831   6.6900  70.3701 0006179 295.7910 255.6491  1.00273112 52251
